OBJECT_NAME,OBJECT_ID,EPOCH,MEAN_MOTION,ECCENTRICITY,INCLINATION,RA_OF_ASC_NODE,ARG_OF_PERICENTER,MEAN_ANOMALY,EPHEMERIS_TYPE,CLASSIFICATION_TYPE,NORAD_CAT_ID,ELEMENT_SET_NO,REV_AT_EPOCH,BSTAR,MEAN_MOTION_DOT,MEAN_MOTION_DDOT
ONEWEB-0667,2023-029AH,2026-07-12T17:01:13.217664,13.20773504,.0001943,87.9195,269.3459,102.2194,257.9157,0,U,55827,999,16451,.30481E-3,.137E-5,0
ONEWEB-0669,2023-029AJ,2026-07-12T16:53:56.309280,13.20772716,.0001628,87.9182,269.3570,85.4973,274.6346,0,U,55828,999,16451,-.79971E-5,.1E-6,0
ONEWEB-0670,2023-029AK,2026-07-12T15:15:19.092960,13.14500768,.0001639,87.8980,284.6650,102.4500,257.6813,0,U,55829,999,16277,.58011E-3,.228E-5,0
ONEWEB-0671,2023-029AL,2026-07-12T16:32:59.559072,13.19726452,.0001917,87.9186,299.8967,106.5690,253.5654,0,U,55830,999,16226,.95402E-4,.51E-6,0
ONEWEB-0672,2023-029AM,2026-07-12T16:46:40.776384,13.20769857,.0002082,87.9206,269.3495,93.8233,266.3139,0,U,55831,999,16451,.41099E-3,.18E-5,0
ONEWEB-0673,2023-029AN,2026-07-12T17:49:11.066016,13.19725147,.0001852,87.9192,299.8794,104.0215,256.1124,0,U,55832,999,16227,-.55839E-4,-.9E-7,0
ONEWEB-0674,2023-029AP,2026-07-12T18:08:50.858880,13.14501789,.000162,87.8954,284.6222,105.2784,254.8525,0,U,55833,999,16277,-.34095E-3,-.114E-5,0
ONEWEB-0675,2023-029AQ,2026-07-12T16:21:37.426752,13.19724393,.0002246,87.9186,299.9003,97.8612,262.2776,0,U,55834,999,16228,.12739E-3,.64E-6,0
ONEWEB-0720,2023-029AR,2026-07-12T17:59:25.768320,13.19725912,.0002076,87.9186,299.8861,108.1898,251.9461,0,U,55835,999,16221,-.12541E-3,-.37E-6,0
ONEWEB-0537,2023-043A,2026-07-12T13:51:43.508160,13.16593910,.0002233,87.9082,223.7278,88.3924,271.7463,0,U,56046,999,16230,.80115E-4,.43E-6,0
ONEWEB-0538,2023-043B,2026-07-12T15:32:02.228928,13.16594009,.0002343,87.9087,223.7161,96.1679,263.9719,0,U,56047,999,16232,-.11591E-3,-.31E-6,0
ONEWEB-0546,2023-043C,2026-07-12T15:13:47.877888,13.16594243,.0002317,87.9087,223.7186,78.9274,281.2117,0,U,56048,999,16231,-.11049E-3,-.29E-6,0
ONEWEB-0547,2023-043D,2026-07-12T16:22:14.475072,13.21826419,.0002411,87.9243,238.9006,113.3786,246.7602,0,U,56049,999,16159,-.18908E-3,-.65E-6,0
ONEWEB-0548,2023-043E,2026-07-12T12:10:15.212928,13.16594475,.00015962,87.9074,223.7409,92.2249,267.9065,0,U,56050,999,16229,-.4591558E-4,-.5E-7,0
ONEWEB-0549,2023-043F,2026-07-12T12:35:45.843360,13.21827225,.00024391,87.9232,238.9380,98.3208,261.8203,0,U,56051,999,16157,.10440533E-3,.56E-6,0
ONEWEB-0550,2023-043G,2026-07-12T15:54:24.331968,13.21827132,.0001851,87.9236,238.9084,97.0737,263.0607,0,U,56052,999,16159,.12496E-4,.18E-6,0
ONEWEB-0551,2023-043H,2026-07-12T17:03:07.187904,13.15547386,.0002344,87.8986,254.1408,103.8026,256.3366,0,U,56053,999,15975,.12129E-3,.58E-6,0
ONEWEB-0552,2023-043J,2026-07-12T15:47:07.002816,13.21826234,.0002049,87.9231,238.9142,102.2159,257.9205,0,U,56054,999,16159,.59835E-4,.38E-6,0
ONEWEB-0553,2023-043K,2026-07-12T15:22:55.009344,13.16593657,.00021,87.9082,223.7182,84.3306,275.8064,0,U,56055,999,16232,-.40902E-4,-.3E-7,0
ONEWEB-0554,2023-043L,2026-07-12T15:04:40.895040,13.16594758,.0001518,87.9078,223.7294,91.9635,268.1670,0,U,56056,999,16230,.16556E-3,.76E-6,0
ONEWEB-0555,2023-043M,2026-07-12T14:09:57.226752,13.16593636,.0002258,87.9078,223.7260,79.3024,280.8361,0,U,56057,999,16230,.50259E-4,.32E-6,0
ONEWEB-0557,2023-043N,2026-07-12T12:41:02.316192,13.16593578,.00014341,87.9079,223.7480,56.6829,303.4439,0,U,56058,999,16229,.26843832E-3,.115E-5,0
ONEWEB-0558,2023-043P,2026-07-12T15:37:26.203008,13.21825625,.0002412,87.9240,238.9103,98.0812,262.0596,0,U,56059,999,16160,.52886E-4,.35E-6,0
ONEWEB-0559,2023-043Q,2026-07-12T15:20:28.575168,13.21823977,.0002247,87.9234,238.9094,100.0393,260.0995,0,U,56060,999,16161,.32993E-4,.27E-6,0
ONEWEB-0566,2023-043R,2026-07-12T02:27:46.057824,13.21823834,.00023294,87.9238,239.0138,102.9616,257.1778,0,U,56061,999,16152,.96006557E-4,.53E-6,0
ONEWEB-0568,2023-043S,2026-07-12T13:06:07.392960,13.16595975,.0002133,87.9079,223.7339,86.5318,273.6057,0,U,56062,999,16231,.18485E-3,.84E-6,0
ONEWEB-0574,2023-043T,2026-07-12T15:01:07.525056,13.21825682,.0002014,87.9238,238.9150,89.3736,270.7628,0,U,56063,999,16163,.55576E-4,.36E-6,0
ONEWEB-0575,2023-043U,2026-07-12T12:56:59.738784,13.16595338,.0001788,87.9079,223.7316,83.1796,276.9538,0,U,56064,999,16230,.27528E-3,.118E-5,0
ONEWEB-0576,2023-043V,2026-07-12T12:29:37.680864,13.16595013,.00019208,87.9078,223.7447,91.3121,268.8230,0,U,56065,999,16229,.70312241E-4,.4E-6,0
ONEWEB-0577,2023-043W,2026-07-12T12:38:45.602880,13.16595725,.00013572,87.9081,223.7403,79.7803,280.3481,0,U,56066,999,16232,.27657428E-3,.119E-5,0
